     2              NAVIGATION DATA                         RINEX VERSION / TYPE
CCRINEXN V1.6.0 UX  CDDIS               30-MAY-08 02:51     PGM / RUN BY / DATE 
IGS BROADCAST EPHEMERIS FILE                                COMMENT             
    0.6519E-08  0.2235E-07 -0.5960E-07 -0.1192E-06          ION ALPHA           
    0.8602E+05  0.9830E+05 -0.6554E+05 -0.5243E+06          ION BETA            
    0.931322574616E-09 0.710542735760E-14   589824     1481 DELTA-UTC: A0,A1,T,W
    14                                                      LEAP SECONDS        
                                                            END OF HEADER       
22 08  5 29 18  0  0.0 0.211286358535E-03 0.227373675443E-12 0.000000000000E+00
    0.580000000000E+02-0.196250000000E+02 0.518807324693E-08-0.213486065507E+01
   -0.100210309029E-05 0.480673881248E-02 0.446476042271E-05 0.515366390800E+04
    0.410400000000E+06 0.223517417908E-07 0.925919684066E+00 0.104308128357E-06
    0.945422411130E+00 0.281218750000E+03-0.180776046437E+01-0.849749681199E-08
   -0.810748056625E-10 0.100000000000E+01 0.148100000000E+04 0.000000000000E+00
    0.200000000000E+01 0.000000000000E+00-0.181607902050E-07 0.580000000000E+02
    0.403218000000E+06 0.400000000000E+01 0.000000000000E+00 0.000000000000E+00
23 08  5 29 18  0  0.0 0.356461387128E-03 0.216004991671E-11 0.000000000000E+00
    0.160000000000E+02-0.452500000000E+02 0.426589197724E-08 0.299412214770E+01
   -0.218488276005E-05 0.555594393518E-02 0.102017074823E-04 0.515373855019E+04
    0.410400000000E+06-0.102445483208E-06 0.193427539584E+01 0.782310962677E-07
    0.971184560890E+00 0.189687500000E+03 0.273991694856E+01-0.788675708652E-08
   -0.450018745087E-10 0.100000000000E+01 0.148100000000E+04 0.000000000000E+00
    0.200000000000E+01 0.000000000000E+00-0.200234353542E-07 0.160000000000E+02
    0.403200000000E+06 0.000000000000E+00 0.000000000000E+00 0.000000000000E+00
24 08  5 29 18  0  0.0 0.976799055934E-04 0.295585778076E-11 0.000000000000E+00
    0.106000000000E+03 0.791875000000E+02 0.479198531971E-08-0.101214211535E+01
    0.395625829697E-05 0.769977201708E-02 0.681169331074E-05 0.515367315483E+04
    0.410400000000E+06-0.109896063805E-06-0.112524118396E+00-0.223517417908E-07
    0.953260344377E+00 0.247031250000E+03-0.729375133310E+00-0.833677583160E-08
    0.384658879729E-09 0.100000000000E+01 0.148100000000E+04 0.000000000000E+00
    0.200000000000E+01 0.000000000000E+00-0.139698386192E-08 0.106000000000E+03
    0.403218000000E+06 0.400000000000E+01 0.000000000000E+00 0.000000000000E+00
25 08  5 29 18  0  0.0-0.185200013220E-03-0.263753463514E-10 0.000000000000E+00
    0.670000000000E+02 0.138437500000E+02 0.466698011274E-08-0.501048744337E+00
    0.843778252602E-06 0.117576183984E-01 0.830926001072E-05 0.515370235252E+04
    0.410400000000E+06-0.707805156708E-07 0.288301264036E+01-0.106170773506E-06
    0.965081101353E+00 0.223000000000E+03-0.124590269200E+01-0.839284959587E-08
    0.345728686702E-09 0.100000000000E+01 0.148100000000E+04 0.000000000000E+00
    0.200000000000E+01 0.000000000000E+00-0.745058059692E-08 0.670000000000E+02
    0.403200000000E+06 0.000000000000E+00 0.000000000000E+00 0.000000000000E+00
26 08  5 29 18  0  0.0 0.263427384198E-03 0.773070496507E-11 0.000000000000E+00
    0.340000000000E+02-0.393437500000E+02 0.367551024261E-08 0.234487353771E+01
   -0.228546559811E-05 0.191724620527E-01 0.963173806667E-05 0.515361348534E+04
    0.410400000000E+06-0.763684511185E-07 0.197645924577E+01-0.359490513802E-06
    0.993262098382E+00 0.211281250000E+03 0.934019854156E+00-0.741816613925E-08
   -0.657170230921E-10 0.100000000000E+01 0.148100000000E+04 0.000000000000E+00
    0.200000000000E+01 0.000000000000E+00-0.605359673500E-08 0.340000000000E+02
    0.403860000000E+06 0.000000000000E+00 0.000000000000E+00 0.000000000000E+00
27 08  5 29 18  0  0.0 0.191838480532E-03 0.261479726760E-11 0.000000000000E+00
    0.420000000000E+02 0.152812500000E+02 0.461304929488E-08-0.467511639953E+00
    0.922009348869E-06 0.210610522190E-01 0.825151801109E-05 0.515376880646E+04
    0.410400000000E+06-0.223517417908E-06 0.291774644831E+01 0.447034835815E-07
    0.969676226519E+00 0.227343750000E+03-0.170747449103E+01-0.853285542768E-08
    0.307869966877E-09 0.100000000000E+01 0.148100000000E+04 0.000000000000E+00
    0.200000000000E+01 0.000000000000E+00-0.419095158577E-08 0.420000000000E+02
    0.403200000000E+06 0.000000000000E+00 0.000000000000E+00 0.000000000000E+00
28 08  5 29 18  0  0.0-0.194786116481E-04-0.341060513165E-12 0.000000000000E+00
    0.720000000000E+02-0.429062500000E+02 0.457733352146E-08-0.175283169261E+01
   -0.225007534027E-05 0.137894160580E-01 0.574812293053E-05 0.515370938110E+04
    0.410400000000E+06 0.350177288055E-06-0.223127290764E+01-0.108033418655E-06
    0.963631261761E+00 0.270218750000E+03-0.209777671019E+01-0.801426239763E-08
   -0.223937899341E-09 0.100000000000E+01 0.148100000000E+04 0.000000000000E+00
    0.200000000000E+01 0.000000000000E+00-0.102445483208E-07 0.720000000000E+02
    0.403200000000E+06 0.000000000000E+00 0.000000000000E+00 0.000000000000E+00
30 08  5 29 18  0  0.0 0.787004828453E-04 0.170530256582E-11 0.000000000000E+00
    0.690000000000E+02-0.408125000000E+02 0.509771234018E-08-0.127743388700E+01
   -0.210851430893E-05 0.105994824553E-01 0.584311783314E-05 0.515372731400E+04
    0.410400000000E+06-0.353902578354E-07-0.229814412044E+01 0.288709998131E-06
    0.948644877335E+00 0.258468750000E+03 0.137251475246E+01-0.847606734794E-08
   -0.282868925483E-09 0.100000000000E+01 0.148100000000E+04 0.000000000000E+00
    0.280000000000E+01 0.000000000000E+00-0.838190317154E-08 0.690000000000E+02
    0.407928000000E+06 0.400000000000E+01 0.000000000000E+00 0.000000000000E+00
31 08  5 29 18  0  0.0-0.215787440538E-04-0.136424205266E-11 0.000000000000E+00
    0.410000000000E+02 0.184062500000E+02 0.453768901296E-08 0.114626898410E+01
    0.698491930962E-06 0.670993584208E-02 0.740215182304E-05 0.515374672699E+04
    0.410400000000E+06 0.353902578354E-07 0.297432642009E+01-0.158324837685E-06
    0.968125824475E+00 0.240968750000E+03-0.122295972728E+01-0.815533970263E-08
    0.246795994330E-09 0.100000000000E+01 0.148100000000E+04 0.000000000000E+00
    0.200000000000E+01 0.000000000000E+00-0.130385160446E-07 0.410000000000E+02
    0.408528000000E+06 0.400000000000E+01 0.000000000000E+00 0.000000000000E+00
32 08  5 29 18  0  0.0 0.291399657726E-03 0.477484718431E-11 0.000000000000E+00
    0.310000000000E+02-0.246562500000E+02 0.465126515081E-08 0.244813851989E+01
   -0.146403908730E-05 0.137221845798E-01 0.479072332382E-05 0.515464743424E+04
    0.410400000000E+06 0.221654772759E-06 0.967714219307E+00-0.130385160446E-07
    0.969159801807E+00 0.292281250000E+03-0.130441250142E+01-0.808748001902E-08
   -0.278940204268E-09 0.100000000000E+01 0.148100000000E+04 0.000000000000E+00
    0.200000000000E+01 0.000000000000E+00-0.279396772385E-08 0.310000000000E+02
    0.403218000000E+06 0.400000000000E+01 0.000000000000E+00 0.000000000000E+00
 2 08  5 29 19 59 44.0 0.205570831895E-03 0.113686837722E-11 0.000000000000E+00
    0.150000000000E+02 0.846250000000E+02 0.476626996285E-08-0.201795064537E+01
    0.457093119621E-05 0.881711137481E-02 0.831857323647E-05 0.515373602104E+04
    0.417584000000E+06-0.212341547012E-06-0.172937484135E+00 0.000000000000E+00
    0.943754299772E+00 0.212781250000E+03 0.256560861802E+01-0.826212986516E-08
    0.365015204348E-09 0.100000000000E+01 0.148100000000E+04 0.000000000000E+00
    0.200000000000E+01 0.000000000000E+00-0.172294676304E-07 0.150000000000E+02
    0.413730000000E+06 0.000000000000E+00 0.000000000000E+00 0.000000000000E+00
 4 08  5 29 19 59 44.0-0.785840675235E-04-0.886757334229E-11 0.000000000000E+00
    0.400000000000E+01 0.821250000000E+02 0.484305887570E-08 0.662955062511E+00
    0.440701842308E-05 0.805140798911E-02 0.767968595028E-05 0.515378416061E+04
    0.417584000000E+06-0.745058059692E-08-0.154089815214E+00 0.145286321640E-06
    0.943065136620E+00 0.221500000000E+03 0.377554071602E+00-0.837713465557E-08
    0.281083136812E-09 0.100000000000E+01 0.148100000000E+04 0.000000000000E+00
    0.200000000000E+01 0.000000000000E+00-0.605359673500E-08 0.400000000000E+01
    0.410400000000E+06 0.000000000000E+00 0.000000000000E+00 0.000000000000E+00
 5 08  5 29 19 59 44.0 0.783992931247E-03 0.852651282912E-11 0.000000000000E+00
    0.200000000000E+01-0.315625000000E+02 0.533593654889E-08 0.270986421661E+00
   -0.152364373207E-05 0.877720466815E-02 0.539422035217E-05 0.515358362389E+04
    0.417584000000E+06-0.819563865662E-07-0.234979593082E+01 0.428408384323E-07
    0.942568946991E+00 0.265218750000E+03 0.122371328370E+01-0.870786271744E-08
   -0.196079596074E-09 0.100000000000E+01 0.148100000000E+04 0.000000000000E+00
    0.200000000000E+01 0.000000000000E+00-0.419095158577E-08 0.200000000000E+01
    0.413478000000E+06 0.400000000000E+01 0.000000000000E+00 0.000000000000E+00
 7 08  5 29 19 59 44.0-0.318121165037E-04 0.829913915368E-11 0.000000000000E+00
    0.700000000000E+01 0.192500000000E+02 0.478091342995E-08 0.262722541821E+01
    0.111572444439E-05 0.168447522446E-02 0.769086182117E-05 0.515371142578E+04
    0.417584000000E+06 0.428408384323E-07 0.297812847395E+01 0.968575477600E-07
    0.962627117718E+00 0.233593750000E+03 0.261013559312E+01-0.822284251440E-08
    0.397159400426E-09 0.100000000000E+01 0.148100000000E+04 0.000000000000E+00
    0.200000000000E+01 0.000000000000E+00-0.107102096081E-07 0.700000000000E+01
    0.414456000000E+06 0.400000000000E+01 0.000000000000E+00 0.000000000000E+00
